H1 CPF  1  DLR 2021 12 04 10  8382 technosat            
H2  1704205 6203    42829 2021 12 04 00 00 00 2021 12 11 00 00 00    60 1 1  0 0 0
H9
10 0 59557  79200.000000  0      -4179953.230       2655560.631       4908121.484
10 0 59557  79260.000000  0      -3850794.483       2568367.860       5214191.784
10 0 59557  79320.000000  0      -3506274.823       2467433.423       5498188.663
10 0 59557  79380.000000  0      -3147967.178       2353058.124       5758919.248
10 0 59557  79440.000000  0      -2777498.111       2225612.769       5995289.793
10 0 59557  79500.000000  0      -2396540.312       2085536.938       6206310.022
10 0 59557  79560.000000  0      -2006804.911       1933337.419       6391097.025
10 0 59557  79620.000000  0      -1610033.687       1769586.327       6548878.643
10 0 59557  79680.000000  0      -1207991.278       1594918.903       6678996.364
10 0 59557  79740.000000  0       -802457.410       1410031.002       6780907.798
10 0 59557  79800.000000  0       -395219.109       1215676.303       6854188.723
10 0 59557  79860.000000  0         11937.086       1012663.234       6898534.691
10 0 59557  79920.000000  0        417232.858        801851.623       6913762.156
10 0 59557  79980.000000  0        818905.757        584149.102       6899809.121
10 0 59557  80040.000000  0       1215216.737        360507.257       6856735.361
10 0 59557  80100.000000  0       1604457.563        131917.540       6784722.176
10 0 59557  80160.000000  0       1984958.068       -100593.059       6684071.714
10 0 59557  80220.000000  0       2355093.230       -335966.576       6555205.827
10 0 59557  80280.000000  0       2713290.072       -573118.803       6398664.458
10 0 59557  80340.000000  0       3058034.349       -810944.170       6215103.552
10 0 59557  80400.000000  0       3387876.983      -1048320.805       6005292.542
10 0 59557  80460.000000  0       3701440.243      -1284115.793       5770111.334
10 0 59557  80520.000000  0       3997423.543      -1517190.512       5510546.799
10 0 59557  80580.000000  0       4274608.928      -1746406.056       5227688.898
10 0 59557  80640.000000  0       4531866.230      -1970628.737       4922726.375
10 0 59557  80700.000000  0       4768157.890      -2188735.639       4596942.042
10 0 59557  80760.000000  0       4982543.406      -2399620.238       4251707.608
10 0 59557  80820.000000  0       5174183.339      -2602198.000       3888478.063
10 0 59557  80880.000000  0       5342342.860      -2795411.941       3508785.636
10 0 59557  80940.000000  0       5486394.769      -2978238.097       3114233.370
10 0 59557  81000.000000  0       5605822.013      -3149690.892       2706488.411
10 0 59557  81060.000000  0       5700219.701      -3308828.399       2287274.988
10 0 59557  81120.000000  0       5769296.630      -3454757.436       1858367.151
10 0 59557  81180.000000  0       5812876.340      -3586638.544       1421581.177
10 0 59557  81240.000000  0       5830897.498      -3703690.661        978767.645
10 0 59557  81300.000000  0       5823413.702      -3805195.471        531803.491
10 0 59557  81360.000000  0       5790592.869      -3890501.578         82583.944
10 0 59557  81420.000000  0       5732716.047      -3959028.405       -366985.791
10 0 59557  81480.000000  0       5650175.555      -4010269.662       -814998.915
10 0 59557  81540.000000  0       5543472.624      -4043796.424      -1259555.305
10 0 59557  81600.000000  0       5413214.590      -4059259.890      -1698769.811
10 0 59557  81660.000000  0       5260111.470      -4056393.734      -2130780.472
10 0 59557  81720.000000  0       5084972.094      -4035016.061      -2553756.557
10 0 59557  81780.000000  0       4888699.824      -3995030.960      -2965906.491
10 0 59557  81840.000000  0       4672287.793      -3936429.588      -3365485.605
10 0 59557  81900.000000  0       4436813.717      -3859290.827      -3750803.579
10 0 59557  81960.000000  0       4183434.395      -3763781.551      -4120231.602
10 0 59557  82020.000000  0       3913379.863      -3650156.427      -4472209.282
10 0 59557  82080.000000  0       3627947.247      -3518757.270      -4805251.181
10 0 59557  82140.000000  0       3328494.358      -3370011.986      -5117952.967
10 0 59557  82200.000000  0       3016433.085      -3204433.112      -5408997.156
10 0 59557  82260.000000  0       2693222.625      -3022615.997      -5677158.439
10 0 59557  82320.000000  0       2360362.604      -2825236.613      -5921308.614
10 0 59557  82380.000000  0       2019386.096      -2613049.007      -6140421.174
10 0 59557  82440.000000  0       1671852.494      -2386882.340      -6333575.499
10 0 59557  82500.000000  0       1319340.305      -2147637.514      -6499960.538
10 0 59557  82560.000000  0        963439.942      -1896283.464      -6638877.957
10 0 59557  82620.000000  0        605746.598      -1633853.196      -6749744.811
10 0 59557  82680.000000  0        247853.124      -1361439.549      -6832095.817
10 0 59557  82740.000000  0       -108657.000      -1080190.615      -6885585.101
10 0 59557  82800.000000  0       -462216.533       -791304.964      -6909987.513
10 0 59557  82860.000000  0       -811281.278       -496026.607      -6905199.564
10 0 59557  82920.000000  0      -1154336.800       -195639.689      -6871239.835
10 0 59557  82980.000000  0      -1489904.930        108537.026      -6808248.882
10 0 59557  83040.000000  0      -1816550.061        415155.847      -6716488.713
10 0 59557  83100.000000  0      -2132885.230        722846.047      -6596341.811
10 0 59557  83160.000000  0      -2437577.954       1030219.911      -6448309.698
10 0 59557  83220.000000  0      -2729355.824       1335878.914      -6273011.033
10 0 59557  83280.000000  0      -3007011.851       1638419.999      -6071179.277
10 0 59557  83340.000000  0      -3269409.539       1936441.987      -5843659.932
10 0 59557  83400.000000  0      -3515487.676       2228552.077      -5591407.296
10 0 59557  83460.000000  0      -3744264.806       2513372.387      -5315480.717
10 0 59557  83520.000000  0      -3954843.340       2789546.507      -5017040.355
10 0 59557  83580.000000  0      -4146413.258       3055746.019      -4697342.479
10 0 59557  83640.000000  0      -4318255.394       3310676.947      -4357734.351
10 0 59557  83700.000000  0      -4469744.278       3553086.131      -3999648.730
10 0 59557  83760.000000  0      -4600350.578       3781767.515      -3624598.007
10 0 59557  83820.000000  0      -4709643.145       3995568.277      -3234167.915
10 0 59557  83880.000000  0      -4797290.584       4193394.752      -2830010.810
10 0 59557  83940.000000  0      -4863062.266       4374218.090      -2413838.657
10 0 59557  84000.000000  0      -4906828.932       4537079.688      -1987415.791
10 0 59557  84060.000000  0      -4928562.829       4681096.377      -1552551.304
10 0 59557  84120.000000  0      -4928337.306       4805465.203      -1111091.196
10 0 59557  84180.000000  0      -4906325.952       4909467.893       -664910.348
10 0 59557  84240.000000  0      -4862801.157       4992474.946       -215904.231
10 0 59557  84300.000000  0      -4798132.103       5053949.227        234019.358
10 0 59557  84360.000000  0      -4712782.489       5093449.139        682948.635
10 0 59557  84420.000000  0      -4607307.754       5110631.336       1128976.325
10 0 59557  84480.000000  0      -4482351.709       5105252.929       1570208.085
10 0 59557  84540.000000  0      -4338642.767       5077173.167       2004770.807
10 0 59557  84600.000000  0      -4176989.791       5026354.620       2430820.779
10 0 59557  84660.000000  0      -3998277.573       4952863.872       2846551.689
10 0 59557  84720.000000  0      -3803461.968       4856871.708       3250202.407
10 0 59557  84780.000000  0      -3593564.731       4738652.777       3640064.517
10 0 59557  84840.000000  0      -3369668.151       4598584.781       4014489.575
10 0 59557  84900.000000  0      -3132909.384       4437147.182       4371896.114
10 0 59557  84960.000000  0      -2884474.563       4254919.396       4710776.285
10 0 59557  85020.000000  0      -2625592.762       4052578.508       5029702.117
10 0 59557  85080.000000  0      -2357529.831       3830896.529       5327331.393
10 0 59557  85140.000000  0      -2081582.110       3590737.226       5602413.111
10 0 59557  85200.000000  0      -1799070.094       3333052.549       5853792.508
10 0 59557  85260.000000  0      -1511332.072       3058878.662       6080415.655
10 0 59557  85320.000000  0      -1219717.738       2769331.567       6281333.598
10 0 59557  85380.000000  0       -925581.894       2465602.387       6455705.960
10 0 59557  85440.000000  0       -630278.277       2148952.454       6602804.161
10 0 59557  85500.000000  0       -335153.392       1820708.033       6722014.312
10 0 59557  85560.000000  0        -41540.407       1482254.687       6812839.560
10 0 59557  85620.000000  0        249246.794       1135031.417       6874901.905
10 0 59557  85680.000000  0        535919.404        780524.613       6907943.591
10 0 59557  85740.000000  0        817219.294        420261.776       6911828.057
10 0 59557  85800.000000  0       1091924.435         55805.037       6886540.459
10 0 59557  85860.000000  0       1358854.125       -311255.521       6832187.752
10 0 59557  85920.000000  0       1616874.007       -679308.754       6748998.270
10 0 59557  85980.000000  0       1864900.819      -1046729.421       6637320.776
10 0 59557  86040.000000  0       2101906.889      -1411885.217       6497623.158
10 0 59557  86100.000000  0       2326924.403      -1773143.964       6330490.691
10 0 59557  86160.000000  0       2539049.384      -2128880.893       6136623.767
10 0 59557  86220.000000  0       2737445.366      -2477485.893       5916835.138
10 0 59557  86280.000000  0       2921346.739      -2817370.777       5672046.744
10 0 59557  86340.000000  0       3090061.740      -3146976.549       5403286.094
99
